2026-05-17 17:49:39 | DEBUG | strands_evaluation.instrumentation.agent_plugins | Tool result: {"results": [{"dataset_id": "kramabench-astronomy-easy-6", "file_path": "files/space-track/58214_storm.csv", "s3_uri": "s3://sana-kramabench/datagov/kramabench-astronomy-easy-6/files/space-track/58214_storm.csv", "size_bytes": 8029, "family": "csv", "preview_text": "CCSDS_OMM_VERS,COMMENT,CREATION_DATE,ORIGINATOR,OBJECT_NAME,OBJECT_ID,CENTER_NAME,REF_FRAME,TIME_SYSTEM,MEAN_ELEMENT_THEORY,EPOCH,MEAN_MOTION,ECCENTRICITY,INCLINATION,RA_OF_ASC_NODE,ARG_OF_PERICENTER,MEAN_ANOMALY,EPHEMERIS_TYPE,CLASSIFICATION_TYPE,NORAD_CAT_ID,ELEMENT_SET_NO,REV_AT_EPOCH,BSTAR,MEAN_MOTION_DOT,MEAN_MOTION_DDOT,SEMIMAJOR_AXIS,PERIOD,APOAPSIS,PERIAPSIS,OBJECT_TYPE,RCS_SIZE,COUNTRY_CODE,LAUNCH_DATE,SITE,DECAY_DATE,FILE,GP_ID,TLE_LINE0,TLE_LINE1,TLE_LINE2\n\"2.0\",\"GENERATED VIA SPACE-TRACK.ORG API\",\"2024-05-10T17:44:02\",\"18 SPCS\",\"STARLINK-30805\",\"2023-170J\",\"EARTH\",\"TEME\",\"UTC\",\"SGP4\",\"2024-05-10T13:03:59.806080\",\"15.02537535\",\"0.00028990\",\"43.0080\",\"226.3847\",\"278.1214\",\"81.9299\",\"0\",\"U\",\"58214\",\"999\",\"2977\",\"-0.00026920000000\",\"-0.00003839\",\"0.0000000000000\",\"6937.212\",\"95.838\",\"561.088\",\"557.066\",\"PAYLOAD\",\"LARGE\",\"US\",\"2023-11-03\",\"AFETR\",\"\",\"4312738\",\"256888979\",\"0 STARLINK-30805\",\"1 58214U 23170J   24131.54444220 -.00003839  00000-0 -26920-3 0  9996\",\"2 58214  43.0080 226.3847 0002899 278.1214  81.9299 15.02537535 29771\"\n\"2.0\",\"GENERATED VIA SPACE-TRACK.ORG API\",\"2024-05-11T02:49:57\",\"18 SPCS\",\"STARLINK-30805\",\"2023-170J\",\"EARTH\",\"TEME\",\"UTC\",\"SGP4\",\"2024-05-10T16:15:27.229536\",\"15.02540313\",\"0.00014720\",\"43.0037\",\"225.6614\",\"276.8779\",\"83.1896\",\"0\",\"U\",\"58214\",\"999\",\"2979\",\"-0.00009585500000\",\"-0.00001498\",\"0.0000000000000\",\"6937.203\",\"95.838\",\"560.089\",\"558.047\",\"PAYLOAD\",\"LARGE\",\"US\",\"2023-11-03\",\"AFETR\",\"\",\"4313042\",\"256923769\",\"0 STARLINK-30805\",\"1 58214U 23170J   24131.67739849 -.00001498  00000-0 -95855-4 0  9997\",\"2 58214...
2026-05-17 17:49:39 | INFO | strands_evaluation.instrumentation.agent_plugins | 
--- Turn 6 (elapsed: 8.8s) ---
2026-05-17 17:49:40 | DEBUG | strands_evaluation.instrumentation.agent_plugins | Model response #6 [stop_reason=tool_use]
2026-05-17 17:49:40 | DEBUG | strands_evaluation.instrumentation.agent_plugins | Model response #6 [role=assistant block=1 tool_use] download({"files": [{"s3_uri": "s3://sana-kramabench/datagov/kramabench-astronomy-easy-6/files/space-track/58214_storm.csv"}, {"s3_uri": "s3://sana-kramabench/datagov/kramabench-astronomy-easy-6/files/space-track/58214_quiet.csv"}]}) [toolUseId=call_oWjB24f5mkmNVLwWqEtRCi4r]
2026-05-17 17:49:40 | INFO | strands_evaluation.instrumentation.agent_plugins | Executing: download({"files": [{"s3_uri": "s3://sana-kramabench/datagov/kramabench-astronomy-easy-6/files/space-track/58214_storm.csv"}, {"s3_uri": "s3://sana-kramabench/datagov/kramabench-astronomy-easy-6/files/space-track/58214_quiet.csv"}]})
2026-05-17 17:49:52 | DEBUG | strands_evaluation.instrumentation.agent_plugins | Tool result: {"downloaded": [{"local_path": "/home/ec2-user/eval_eqa/exploratory-qa-eval/.sandbox_isolated/task_1728690_1779040170570/kramabench-astronomy-easy-6/files/space-track/58214_storm.csv", "file_path": "files/space-track/58214_storm.csv", "dataset_id": "kramabench-astronomy-easy-6", "s3_uri": "s3://sana-kramabench/datagov/kramabench-astronomy-easy-6/files/space-track/58214_storm.csv", "size": 8029, "status": "downloaded"}, {"local_path": "/home/ec2-user/eval_eqa/exploratory-qa-eval/.sandbox_isolated/task_1728690_1779040170570/kramabench-astronomy-easy-6/files/space-track/58214_quiet.csv", "file_path": "files/space-track/58214_quiet.csv", "dataset_id": "kramabench-astronomy-easy-6", "s3_uri": "s3://sana-kramabench/datagov/kramabench-astronomy-easy-6/files/space-track/58214_quiet.csv", "size": 5115, "status": "downloaded"}], "download_count": 2, "sandbox_dir": "/home/ec2-user/eval_eqa/exploratory-qa-eval/.sandbox_isolated/task_1728690_1779040170570", "path_map": {"s3://sana-kramabench/datagov/kramabench-astronomy-easy-6/files/space-track/58214_storm.csv": "/home/ec2-user/eval_eqa/exploratory-qa-eval/.sandbox_isolated/task_1728690_1779040170570/kramabench-astronomy-easy-6/files/space-track/58214_storm.csv", "kramabench-astronomy-easy-6/files/space-track/58214_storm.csv": "/home/ec2-user/eval_eqa/exploratory-qa-eval/.sandbox_isolated/task_1728690_1779040170570/kramabench-astronomy-easy-6/files/space-track/58214_storm.csv", "kramabench-astronomy-easy-6:files/space-track/58214_storm.csv": "/home/ec2-user/eval_eqa/exploratory-qa-eval/.sandbox_isolated/task_1728690_1779040170570/kramabench-astronomy-easy-6/files/space-track/58214_storm.csv", "s3://sana-kramabench/datagov/kramabench-astronomy-easy-6/files/space-track/58214_quiet.csv": "/home/ec2-user/eval_eqa/exploratory-qa-eval/.sandbox_isolated/task_1728690_1779040170570/kramabench-astronomy-easy-6/files/space-track/58214_quiet.csv", "kramabench-astronomy-easy-6/files/space-track/58214_quiet.csv": "/home/ec2-user/eval_eqa/expl...
2026-05-17 17:49:52 | INFO | strands_evaluation.instrumentation.agent_plugins | 
--- Turn 7 (elapsed: 22.0s) ---
2026-05-17 17:49:58 | DEBUG | strands_evaluation.instrumentation.agent_plugins | Model response #7 [stop_reason=tool_use]
2026-05-17 17:49:58 | DEBUG | strands_evaluation.instrumentation.agent_plugins | Model response #7 [role=assistant block=1 tool_use] execute_ideal({"code": "# intent: Compute semi-major axis from mean motion (rev/day) for each file, then compute average decay rate (km/day) between first and last record for quiet (May1-4) and storm (May10-13) using provided mu. Read both CSVs from downloaded local paths.\nimport pandas as pd\nimport numpy as np\nfrom datetime import datetime\n\n# Constants\nMU = 398600.4418  # km^3/s^2\n\n# Paths from download path_map\nstorm_path = '/home/ec2-user/eval_eqa/exploratory-qa-eval/.sandbox_isolated/task_1728690_1779040170570/kramabench-astronomy-easy-6/files/space-track/58214_storm.csv'\nquiet_path = '/home/ec2-user/eval_eqa/exploratory-qa-eval/.sandbox_isolated/task_1728690_1779040170570/kramabench-astronomy-easy-6/files/space-track/58214_quiet.csv'\n\n# Read CSVs\nstorm = pd.read_csv(storm_path)\nquiet = pd.read_csv(quiet_path)\n\n# Inspect columns\nprint('Storm cols:', storm.columns.tolist())\nprint('Quiet cols:', quiet.columns.tolist())\n\n# Function to compute semi-major axis from mean motion (rev/day)\n# Convert mean motion (rev/day) -> n (rad/s): n = mean_motion * 2*pi / 86400\n# Then a = (mu / n^2)^(1/3)\n\ndef compute_a(df):\n    # Some mean_motion may be strings; ensure numeric\n    mm = pd.to_numeric(df['MEAN_MOTION'], errors='coerce')\n    n = mm * 2 * np.pi / 86400.0\n    a = (MU / (n**2))**(1.0/3.0)\n    # parse epochs\n    epochs = pd.to_datetime(df['EPOCH'])\n    return pd.DataFrame({'epoch': epochs, 'mean_motion': mm, 'a_km': a})\n\nstorm_a = compute_a(storm).sort_values('epoch').reset_index(drop=True)\nquiet_a = compute_a(quiet).sort_values('epoch').reset_index(drop=True)\n\nprint('Storm records:', len(storm_a))\nprint(storm_a.head())\nprint('Quiet records:', len(quiet_a))\nprint(quiet_a.head())\n\n# Compute rate = (a_last - a_first) / days_between  (km per day). We expect negative for decay.\ndef endpoint_rate(df_a):\n    if len(df_a) < 2:\n        return None\n    t0 = df_a['epoch'].iloc[0]\n    t1 = df_a['epoch'].iloc[-1]\n    a0 = df_a['a_km'].iloc[0]\n    a1 = df_a['a_km'].iloc[-1]\n    days = (t1 - t0).total_seconds() / 86400.0\n    rate = (a1 - a0) / days\n    return rate, a0, a1, days, t0, t1\n\nquiet_rate = endpoint_rate(quiet_a)\nstorm_rate = endpoint_rate(storm_a)\n\nprint('quiet_rate detail:', quiet_rate)\nprint('storm_rate detail:', storm_rate)\n\n# Print only the rates in requested order\nquiet_rate_km_day = quiet_rate[0]\nstorm_rate_km_day = storm_rate[0]\nprint('RESULT:', quiet_rate_km_day, storm_rate_km_day)\n\n# Round to reasonable precision (e.g., 6 decimal places)\nprint(round(quiet_rate_km_day, 6), round(storm_rate_km_day, 6))\n\n# Output final values for submit\nquiet_val = float(quiet_rate_km_day)\nstorm_val = float(storm_rate_km_day)\nprint([quiet_val, storm_val])\n", "intent": "Calculate semi-major axis from mean motion and compute endpoint average decay rate (km/day) for quiet and storm CSV files for NORAD 58214."}) [toolUseId=call_i7L9emKkwmwaQR5sDWDswRCZ]
